OBJECT_NAME,OBJECT_ID,EPOCH,MEAN_MOTION,ECCENTRICITY,INCLINATION,RA_OF_ASC_NODE,ARG_OF_PERICENTER,MEAN_ANOMALY,EPHEMERIS_TYPE,CLASSIFICATION_TYPE,NORAD_CAT_ID,ELEMENT_SET_NO,REV_AT_EPOCH,BSTAR,MEAN_MOTION_DOT,MEAN_MOTION_DDOT
STARLINK-37781,2026-122N,2026-06-13T20:00:01.999008,15.80825789,.0000871,97.2831,194.1112,96.5008,114.8985,0,U,69341,999,281,-.35283E-4,-.6897E-4,0
STARLINK-37782,2026-122P,2026-06-13T20:00:01.999008,15.84433081,.0001435,97.2823,194.1314,88.3230,171.3737,0,U,69342,999,281,-.58876E-2,-.1190992E-1,0
STARLINK-37776,2026-122Q,2026-06-13T20:00:01.999008,15.84583839,.0001439,97.2823,194.1330,87.6209,176.8029,0,U,69343,999,281,-.58705E-2,-.1195591E-1,0
STARLINK-37786,2026-122R,2026-06-13T20:00:01.999008,15.85340965,.0001618,97.2830,194.1386,96.2079,180.8446,0,U,69344,999,281,-.10613E-1,-.2157964E-1,0
STARLINK-37785,2026-122S,2026-06-13T20:00:01.999008,15.85064441,.0001305,97.2825,194.1389,88.2213,189.6102,0,U,69345,999,281,-.56932E-2,-.1187499E-1,0
STARLINK-37773,2026-122T,2026-06-13T20:00:01.999008,15.82492307,.0001479,97.2835,194.1416,96.0950,186.3142,0,U,69346,999,286,-.11071E-1,-.1990499E-1,0
STARLINK-37744,2026-122U,2026-06-13T20:00:01.999008,15.83535177,.0001595,97.2834,194.1446,91.4217,198.3343,0,U,69347,999,281,-.13058E-1,-.2448924E-1,0
STARLINK-37775,2026-122V,2026-06-13T20:00:01.999008,15.83516458,.0001491,97.2837,194.1405,96.0975,182.4662,0,U,69348,999,281,-.11646E-1,-.2166988E-1,0
STARLINK-37777,2026-122W,2026-06-13T20:00:01.999008,15.80894872,.000135,97.2835,194.1413,79.1504,202.8806,0,U,69349,999,281,-.10223E-2,-.192403E-2,0
STARLINK-37779,2026-122X,2026-06-13T20:00:01.999008,15.80938468,.0001204,97.2841,194.1445,62.6186,226.2445,0,U,69350,999,281,-.12032E-2,-.226011E-2,0
STARLINK-37549,2026-122Y,2026-06-13T20:00:01.999008,15.80915737,.0003451,97.2841,194.1387,92.1345,181.2753,0,U,69351,999,281,-.14807E-2,-.2764E-2,0
STARLINK-37778,2026-122Z,2026-06-13T20:00:01.999008,15.80780745,.0001373,97.2842,194.1476,70.2793,225.9791,0,U,69352,999,281,.21632E-3,.41423E-3,0
STARLINK-37651,2026-123A,2026-06-13T20:00:01.999008,15.80843690,.000111,53.1587,258.6159,85.8170,341.9146,0,U,69353,999,261,.29356E-3,.57548E-3,0
STARLINK-37652,2026-123B,2026-06-13T20:00:01.999008,15.80898704,.0000795,53.1585,258.6295,70.4020,350.8184,0,U,69354,999,261,-.2218E-3,-.44301E-3,0
STARLINK-37593,2026-123C,2026-06-13T20:00:01.999008,15.80880398,.0000938,53.1586,258.6187,55.8259,10.3519,0,U,69355,999,266,-.52525E-5,-.1735E-4,0
STARLINK-37597,2026-123D,2026-06-13T20:00:01.999008,15.80860016,.0001056,53.1586,258.5996,82.3439,353.1135,0,U,69356,999,266,.25019E-3,.48931E-3,0
STARLINK-37598,2026-123E,2026-06-13T20:00:01.999008,15.80845055,.0001289,53.1589,258.5747,78.5843,8.8283,0,U,69357,999,266,.26451E-3,.51753E-3,0
STARLINK-37602,2026-123F,2026-06-13T20:00:01.999008,15.80881319,.0001283,53.1589,258.5653,99.1928,353.0907,0,U,69358,999,266,-.34264E-5,-.1376E-4,0
STARLINK-37600,2026-123G,2026-06-13T20:00:01.999008,15.80865986,.0001383,53.1592,258.5307,49.5254,59.5733,0,U,69359,999,266,.13012E-3,.25048E-3,0
STARLINK-37599,2026-123H,2026-06-13T20:00:01.999008,15.83309955,.000125,53.1583,258.4579,58.1966,85.9604,0,U,69360,999,261,-.10772E-1,-.2057157E-1,0
STARLINK-37039,2026-123J,2026-06-13T20:00:01.999008,15.80875336,.0001362,53.1594,258.5098,70.7359,47.6946,0,U,69361,999,261,.79448E-4,.1501E-3,0
STARLINK-37040,2026-123K,2026-06-13T20:00:01.999008,15.89784483,.0001041,53.1571,258.3509,60.2967,135.1118,0,U,69362,999,261,-.75279E-2,-.1992621E-1,0
STARLINK-37582,2026-123L,2026-06-13T20:00:01.999008,15.81332972,.0001007,53.1588,258.4547,25.1175,120.3753,0,U,69363,999,261,-.36133E-2,-.675027E-2,0
STARLINK-37309,2026-123M,2026-06-13T20:00:01.999008,15.92544484,.0000877,53.1565,258.2814,55.0266,173.9793,0,U,69364,999,275,-.63195E-2,-.2190017E-1,.12974E-2
STARLINK-37436,2026-123N,2026-06-13T20:00:01.999008,15.92846856,.0000946,53.1564,258.2482,67.6375,177.2173,0,U,69365,999,275,-.63823E-2,-.2246363E-1,.13657E-2
STARLINK-37581,2026-123P,2026-06-13T20:00:01.999008,15.90863547,.0000954,53.1566,258.2567,59.5659,181.2342,0,U,69366,999,260,-.67414E-2,-.2142351E-1,.12234E-2
STARLINK-37683,2026-123Q,2026-06-13T20:00:01.999008,15.92177894,.0000695,53.1567,258.2321,62.4636,190.1260,0,U,69367,999,261,-.63654E-2,-.2164467E-1,.12641E-2
STARLINK-37687,2026-123R,2026-06-13T20:00:01.999008,15.92596583,.0001172,53.1564,258.1905,47.9832,224.6042,0,U,69368,999,261,-.69776E-2,-.2422114E-1,.15734E-2
STARLINK-37631,2026-123S,2026-06-13T20:00:01.999008,15.91669183,.0000819,53.1562,258.1820,52.2886,224.5747,0,U,69369,999,266,-.63069E-2,-.2089724E-1,.11771E-2
STARLINK-37673,2026-123T,2026-06-13T20:00:01.999008,15.91253781,.0000744,53.1561,258.1673,61.1389,222.7282,0,U,69370,999,266,-.65318E-2,-.2118005E-1,.12021E-2
