STARLINK-37781          
1 69341U 26122N   26164.83335647 -.00006897  00000+0 -35283-4 0  9990
2 69341  97.2831 194.1112 0000871  96.5008 114.8985 15.80825789  2818
STARLINK-37782          
1 69342U 26122P   26164.83335647 -.01190992  00000+0 -58876-2 0  9993
2 69342  97.2823 194.1314 0001435  88.3230 171.3737 15.84433081  2814
STARLINK-37776          
1 69343U 26122Q   26164.83335647 -.01195591  00000+0 -58705-2 0  9995
2 69343  97.2823 194.1330 0001439  87.6209 176.8029 15.84583839  2816
STARLINK-37786          
1 69344U 26122R   26164.83335647 -.02157964  00000+0 -10613-1 0  9994
2 69344  97.2830 194.1386 0001618  96.2079 180.8446 15.85340965  2816
STARLINK-37785          
1 69345U 26122S   26164.83335647 -.01187499  00000+0 -56932-2 0  9995
2 69345  97.2825 194.1389 0001305  88.2213 189.6102 15.85064441  2816
STARLINK-37773          
1 69346U 26122T   26164.83335647 -.01990499  00000+0 -11071-1 0  9992
2 69346  97.2835 194.1416 0001479  96.0950 186.3142 15.82492307  2862
STARLINK-37744          
1 69347U 26122U   26164.83335647 -.02448924  00000+0 -13058-1 0  9992
2 69347  97.2834 194.1446 0001595  91.4217 198.3343 15.83535177  2814
STARLINK-37775          
1 69348U 26122V   26164.83335647 -.02166988  00000+0 -11646-1 0  9991
2 69348  97.2837 194.1405 0001491  96.0975 182.4662 15.83516458  2819
STARLINK-37777          
1 69349U 26122W   26164.83335647 -.00192403  00000+0 -10223-2 0  9992
2 69349  97.2835 194.1413 0001350  79.1504 202.8806 15.80894872  2814
STARLINK-37779          
1 69350U 26122X   26164.83335647 -.00226011  00000+0 -12032-2 0  9997
2 69350  97.2841 194.1445 0001204  62.6186 226.2445 15.80938468  2818
STARLINK-37549          
1 69351U 26122Y   26164.83335647 -.00276400  00000+0 -14807-2 0  9997
2 69351  97.2841 194.1387 0003451  92.1345 181.2753 15.80915737  2811
STARLINK-37778          
1 69352U 26122Z   26164.83335647  .00041423  00000+0  21632-3 0  9996
2 69352  97.2842 194.1476 0001373  70.2793 225.9791 15.80780745  2814
STARLINK-37651          
1 69353U 26123A   26164.83335647  .00057548  00000+0  29356-3 0  9994
2 69353  53.1587 258.6159 0001110  85.8170 341.9146 15.80843690  2616
STARLINK-37652          
1 69354U 26123B   26164.83335647 -.00044301  00000+0 -22180-3 0  9998
2 69354  53.1585 258.6295 0000795  70.4020 350.8184 15.80898704  2615
STARLINK-37593          
1 69355U 26123C   26164.83335647 -.00001735  00000+0 -52525-5 0  9991
2 69355  53.1586 258.6187 0000938  55.8259  10.3519 15.80880398  2662
STARLINK-37597          
1 69356U 26123D   26164.83335647  .00048931  00000+0  25019-3 0  9995
2 69356  53.1586 258.5996 0001056  82.3439 353.1135 15.80860016  2664
STARLINK-37598          
1 69357U 26123E   26164.83335647  .00051753  00000+0  26451-3 0  9993
2 69357  53.1589 258.5747 0001289  78.5843   8.8283 15.80845055  2660
STARLINK-37602          
1 69358U 26123F   26164.83335647 -.00001376  00000+0 -34264-5 0  9995
2 69358  53.1589 258.5653 0001283  99.1928 353.0907 15.80881319  2665
STARLINK-37600          
1 69359U 26123G   26164.83335647  .00025048  00000+0  13012-3 0  9992
2 69359  53.1592 258.5307 0001383  49.5254  59.5733 15.80865986  2665
STARLINK-37599          
1 69360U 26123H   26164.83335647 -.02057157  00000+0 -10772-1 0  9992
2 69360  53.1583 258.4579 0001250  58.1966  85.9604 15.83309955  2613
STARLINK-37039          
1 69361U 26123J   26164.83335647  .00015010  00000+0  79448-4 0  9999
2 69361  53.1594 258.5098 0001362  70.7359  47.6946 15.80875336  2615
STARLINK-37040          
1 69362U 26123K   26164.83335647 -.01992621  00000+0 -75279-2 0  9991
2 69362  53.1571 258.3509 0001041  60.2967 135.1118 15.89784483  2614
STARLINK-37582          
1 69363U 26123L   26164.83335647 -.00675027  00000+0 -36133-2 0  9995
2 69363  53.1588 258.4547 0001007  25.1175 120.3753 15.81332972  2614
STARLINK-37309          
1 69364U 26123M   26164.83335647 -.02190017  12974-2 -63195-2 0  9993
2 69364  53.1565 258.2814 0000877  55.0266 173.9793 15.92544484  2750
STARLINK-37436          
1 69365U 26123N   26164.83335647 -.02246363  13657-2 -63823-2 0  9997
2 69365  53.1564 258.2482 0000946  67.6375 177.2173 15.92846856  2755
STARLINK-37581          
1 69366U 26123P   26164.83335647 -.02142351  12234-2 -67414-2 0  9990
2 69366  53.1566 258.2567 0000954  59.5659 181.2342 15.90863547  2607
STARLINK-37683          
1 69367U 26123Q   26164.83335647 -.02164467  12641-2 -63654-2 0  9997
2 69367  53.1567 258.2321 0000695  62.4636 190.1260 15.92177894  2611
STARLINK-37687          
1 69368U 26123R   26164.83335647 -.02422114  15734-2 -69776-2 0  9991
2 69368  53.1564 258.1905 0001172  47.9832 224.6042 15.92596583  2614
STARLINK-37631          
1 69369U 26123S   26164.83335647 -.02089724  11771-2 -63069-2 0  9994
2 69369  53.1562 258.1820 0000819  52.2886 224.5747 15.91669183  2666
STARLINK-37673          
1 69370U 26123T   26164.83335647 -.02118005  12021-2 -65318-2 0  9999
2 69370  53.1561 258.1673 0000744  61.1389 222.7282 15.91253781  2664
